[{"OBJECT_NAME":"STARLINK-36068","OBJECT_ID":"2025-280AA","EPOCH":"2026-03-09T23:39:32.549760","MEAN_MOTION":14.98335041,"ECCENTRICITY":0.00024521,"INCLINATION":70.0027,"RA_OF_ASC_NODE":333.566,"ARG_OF_PERICENTER":259.1288,"MEAN_ANOMALY":100.9596,"EPHEMERIS_TYPE":0,"CLASSIFICATION_TYPE":"U","NORAD_CAT_ID":66845,"ELEMENT_SET_NO":999,"REV_AT_EPOCH":1612,"BSTAR":0.00043628706,"MEAN_MOTION_DOT":5.117e-5,"MEAN_MOTION_DDOT":0},{"OBJECT_NAME":"CZ-6A DEB","OBJECT_ID":"2022-151CK","EPOCH":"2026-03-09T04:15:44.570880","MEAN_MOTION":14.7716303,"ECCENTRICITY":0.01031562,"INCLINATION":98.594,"RA_OF_ASC_NODE":152.6273,"ARG_OF_PERICENTER":122.5744,"MEAN_ANOMALY":238.5477,"EPHEMERIS_TYPE":0,"CLASSIFICATION_TYPE":"U","NORAD_CAT_ID":54340,"ELEMENT_SET_NO":999,"REV_AT_EPOCH":17671,"BSTAR":0.0019701996,"MEAN_MOTION_DOT":0.0001519,"MEAN_MOTION_DDOT":0}]
